ORS-5 SENSORSAT         
1 42921U 17050A   26068.65161006  .00003656  00000+0  21756-3 0  9991
2 42921   0.0472 167.0860 0010549  19.2794 173.6211 15.00514080466070
STARLINK-30487          
1 57924U 23147M   26068.04723376  .00000880  00000+0  80172-4 0  9995
2 57924  43.0054 329.3320 0000049 222.8366 137.2472 15.02542965136521
